[{"OBJECT_NAME":"STARLINK-6166","OBJECT_ID":"2023-061K","EPOCH":"2026-03-09T22:00:01.999584","MEAN_MOTION":15.13484228,"ECCENTRICITY":0.00023094,"INCLINATION":42.9998,"RA_OF_ASC_NODE":195.708,"ARG_OF_PERICENTER":284.6312,"MEAN_ANOMALY":123.1748,"EPHEMERIS_TYPE":0,"CLASSIFICATION_TYPE":"U","NORAD_CAT_ID":56383,"ELEMENT_SET_NO":999,"REV_AT_EPOCH":572,"BSTAR":0.0043761353,"MEAN_MOTION_DOT":0.00080384,"MEAN_MOTION_DDOT":0},{"OBJECT_NAME":"IRIDIUM 33 DEB","OBJECT_ID":"1997-051QU","EPOCH":"2026-03-08T21:05:50.889408","MEAN_MOTION":15.14163842,"ECCENTRICITY":0.00066898,"INCLINATION":86.1938,"RA_OF_ASC_NODE":220.7787,"ARG_OF_PERICENTER":301.9958,"MEAN_ANOMALY":209.7336,"EPHEMERIS_TYPE":0,"CLASSIFICATION_TYPE":"U","NORAD_CAT_ID":35622,"ELEMENT_SET_NO":999,"REV_AT_EPOCH":88659,"BSTAR":0.0030521317,"MEAN_MOTION_DOT":0.00056043,"MEAN_MOTION_DDOT":0}]
